IRIDIUM 144             
1 43249U 18030A   25189.41133552  .00000018  00000+0 -57985-6 0  9992
2 43249  86.3943  74.1294 0001989  83.6630 276.4792 14.34217561380885
IRIDIUM 149             
1 43250U 18030B   25189.13860402  .00000171  00000+0  53994-4 0  9997
2 43250  86.3945  74.2147 0002064  84.5145 275.6287 14.34217924380842
IRIDIUM 157             
1 43251U 18030C   25189.43670630  .00000046  00000+0  92455-5 0  9990
2 43251  86.3946  74.1358 0002301  89.9634 270.1826 14.34217844380865
IRIDIUM 140             
1 43252U 18030D   25189.17665983  .00000040  00000+0  72742-5 0  9998
2 43252  86.3947  74.2580 0002104  80.4971 279.6462 14.34217709380888
IRIDIUM 145             
1 43253U 18030E   25188.95466822  .00000044  00000+0  86282-5 0  9993
2 43253  86.3947  74.3236 0001776  81.1728 278.9669 14.34217755380781
IRIDIUM 146             
1 43254U 18030F   25189.14494552  .00000033  00000+0  46642-5 0  9991
2 43254  86.3946  74.2576 0001772  81.0167 279.1230 14.34217831380826
IRIDIUM 148             
1 43255U 18030G   25188.83416873  .00000186  00000+0  59200-4 0  9999
2 43255  86.3948  74.4254 0002050  89.1913 270.9518 14.34216359380813
IRIDIUM 142             
1 43256U 18030H   25189.15128829  .00000047  00000+0  98061-5 0  9992
2 43256  86.3944  74.1941 0001660  82.4643 277.6741 14.34217808380825
